IRIDIUM 39              
1 25042U 97069D   25360.75230109  .00000819  00000+0  20801-3 0  9998
2 25042  86.3929 128.6224 0018497  29.4527 330.7715 14.49525589476853
IRIDIUM 38              
1 25043U 97069E   25360.82215376  .00000552  00000+0  17499-3 0  9999
2 25043  86.3979 152.1863 0002708 137.6424 222.4983 14.38327389473640
IRIDIUM 42              
1 25077U 97077A   25360.85679037  .00000498  00000+0  16280-3 0  9992
2 25077  86.3984 158.5768 0001890 114.9376 245.2017 14.36544211468853
IRIDIUM 44              
1 25078U 97077B   25360.84653412  .00000469  00000+0  14140-3 0  9992
2 25078  86.3978 140.0026 0003877 103.1049 257.0583 14.40443592471436
IRIDIUM 45              
1 25104U 97082A   25360.59104543  .00038874  00000+0  10808-2 0  9993
2 25104  86.3550 313.8480 0094735 328.3773  31.1803 15.32195764481393
IRIDIUM 24              
1 25105U 97082B   25360.70809417  .00000513  00000+0  14934-3 0  9993
2 25105  86.3908 358.6241 0012237 151.8916 208.2948 14.42340507470963
IRIDIUM 51              
1 25262U 98018A   25360.85452639  .00115346  00000+0  11027-2 0  9993
2 25262  86.3724 318.9808 0046141 212.3651 147.4785 15.64957179476852
IRIDIUM 57              
1 25273U 98019B   25360.70797792  .00000371  00000+0  12080-3 0  9994
2 25273  86.3947  64.5309 0002235  97.6111 262.5340 14.36061441452410
